GLOBALSTAR M024         
1 25883U 99043A   26012.71132859 -.00000032  00000+0  11604-2 0  9997
2 25883  52.0005 267.8643 0002447  70.9162 321.5366 11.10166014138131
GLOBALSTAR M027         
1 25884U 99043B   26012.67016406 -.00000067  00000+0 -12186-3 0  9998
2 25884  52.0246 351.8714 0021437 330.0533  29.9033 11.04372687164388
GLOBALSTAR M054         
1 25885U 99043C   26012.20381877 -.00000096  00000+0 -62154-3 0  9997
2 25885  52.0150  85.1307 0005313 172.5376 199.7791 11.39224532142877
GLOBALSTAR M053         
1 25886U 99043D   26012.82557560 -.00000076  00000+0 -19943-3 0  9996
2 25886  52.0001  42.3676 0003475  83.9452  87.1241 11.27669116143097
GLOBALSTAR M058         
1 25907U 99049A   26012.73446103 -.00000063  00000+0  29418-3 0  9999
2 25907  51.9938 269.6263 0001897 338.7328  21.3427 11.93206833566555
GLOBALSTAR M050         
1 25908U 99049B   26012.42641097 -.00000024  00000+0  73009-3 0  9997
2 25908  51.9979 262.4922 0009996  86.2693  84.7728 12.07463341173468
GLOBALSTAR M033         
1 25909U 99049C   26012.71017009 -.00000060  00000+0  30042-3 0  9990
2 25909  51.9909 119.0721 0013591 337.9765  22.0497 12.20297281561325
GLOBALSTAR M055         
1 25910U 99049D   26012.68596617 -.00000086  00000+0  69702-4 0  9999
2 25910  52.0019 119.6843 0007087 199.2230 160.8355 12.29439169194059
